[{"OBJECT_NAME":"ONEWEB-0050","OBJECT_ID":"2020-020AF","EPOCH":"2025-09-19T23:34:36.656544","MEAN_MOTION":14.89433557,"ECCENTRICITY":0.0003058,"INCLINATION":88.286,"RA_OF_ASC_NODE":271.6345,"ARG_OF_PERICENTER":182.0518,"MEAN_ANOMALY":178.0699,"EPHEMERIS_TYPE":0,"CLASSIFICATION_TYPE":"U","NORAD_CAT_ID":45453,"ELEMENT_SET_NO":999,"REV_AT_EPOCH":30015,"BSTAR":0.0062214918,"MEAN_MOTION_DOT":0.00059598,"MEAN_MOTION_DDOT":0},{"OBJECT_NAME":"ONEWEB-0034","OBJECT_ID":"2020-020AG","EPOCH":"2025-09-19T23:00:25.255296","MEAN_MOTION":13.11413512,"ECCENTRICITY":0.0001655,"INCLINATION":87.8787,"RA_OF_ASC_NODE":74.8833,"ARG_OF_PERICENTER":90.4511,"MEAN_ANOMALY":269.6807,"EPHEMERIS_TYPE":0,"CLASSIFICATION_TYPE":"U","NORAD_CAT_ID":45454,"ELEMENT_SET_NO":999,"REV_AT_EPOCH":26717,"BSTAR":-0.0010725451,"MEAN_MOTION_DOT":-3.67e-6,"MEAN_MOTION_DDOT":0},{"OBJECT_NAME":"ONEWEB-0060","OBJECT_ID":"2020-020AH","EPOCH":"2025-09-19T22:18:56.356416","MEAN_MOTION":13.11415251,"ECCENTRICITY":0.00011572,"INCLINATION":87.878,"RA_OF_ASC_NODE":74.9148,"ARG_OF_PERICENTER":43.1406,"MEAN_ANOMALY":316.9812,"EPHEMERIS_TYPE":0,"CLASSIFICATION_TYPE":"U","NORAD_CAT_ID":45455,"ELEMENT_SET_NO":999,"REV_AT_EPOCH":26712,"BSTAR":0.001493301,"MEAN_MOTION_DOT":5.42e-6,"MEAN_MOTION_DDOT":0},{"OBJECT_NAME":"ONEWEB-0086","OBJECT_ID":"2020-020AJ","EPOCH":"2025-09-19T21:48:24.724800","MEAN_MOTION":13.11418246,"ECCENTRICITY":9.158e-5,"INCLINATION":87.8788,"RA_OF_ASC_NODE":74.8906,"ARG_OF_PERICENTER":89.0756,"MEAN_ANOMALY":271.0477,"EPHEMERIS_TYPE":0,"CLASSIFICATION_TYPE":"U","NORAD_CAT_ID":45456,"ELEMENT_SET_NO":999,"REV_AT_EPOCH":26718,"BSTAR":-0.00039720257,"MEAN_MOTION_DOT":-1.28e-6,"MEAN_MOTION_DDOT":0},{"OBJECT_NAME":"ONEWEB-0088","OBJECT_ID":"2020-020AK","EPOCH":"2025-09-19T23:06:30.589056","MEAN_MOTION":13.11415152,"ECCENTRICITY":0.00017481,"INCLINATION":87.8793,"RA_OF_ASC_NODE":74.8267,"ARG_OF_PERICENTER":87.0174,"MEAN_ANOMALY":273.1154,"EPHEMERIS_TYPE":0,"CLASSIFICATION_TYPE":"U","NORAD_CAT_ID":45457,"ELEMENT_SET_NO":999,"REV_AT_EPOCH":26712,"BSTAR":-0.0019402155,"MEAN_MOTION_DOT":-6.75e-6,"MEAN_MOTION_DDOT":0},{"OBJECT_NAME":"ONEWEB-0102","OBJECT_ID":"2020-100A","EPOCH":"2025-09-20T02:27:56.274624","MEAN_MOTION":13.12443156,"ECCENTRICITY":0.00016752,"INCLINATION":87.8914,"RA_OF_ASC_NODE":44.3427,"ARG_OF_PERICENTER":101.9544,"MEAN_ANOMALY":258.1772,"EPHEMERIS_TYPE":0,"CLASSIFICATION_TYPE":"U","NORAD_CAT_ID":47258,"ELEMENT_SET_NO":999,"REV_AT_EPOCH":22930,"BSTAR":-0.00061247185,"MEAN_MOTION_DOT":-2.08e-6,"MEAN_MOTION_DDOT":0},{"OBJECT_NAME":"ONEWEB-0109","OBJECT_ID":"2020-100B","EPOCH":"2025-09-20T02:39:36.499968","MEAN_MOTION":13.12441924,"ECCENTRICITY":0.00016399,"INCLINATION":87.8916,"RA_OF_ASC_NODE":44.309,"ARG_OF_PERICENTER":101.0487,"MEAN_ANOMALY":259.0826,"EPHEMERIS_TYPE":0,"CLASSIFICATION_TYPE":"U","NORAD_CAT_ID":47259,"ELEMENT_SET_NO":999,"REV_AT_EPOCH":22913,"BSTAR":-0.0017136473,"MEAN_MOTION_DOT":-6.04e-6,"MEAN_MOTION_DDOT":0},{"OBJECT_NAME":"ONEWEB-0110","OBJECT_ID":"2020-100C","EPOCH":"2025-09-19T21:47:38.931072","MEAN_MOTION":13.12444311,"ECCENTRICITY":0.00014067,"INCLINATION":87.8914,"RA_OF_ASC_NODE":44.3336,"ARG_OF_PERICENTER":95.3714,"MEAN_ANOMALY":264.7575,"EPHEMERIS_TYPE":0,"CLASSIFICATION_TYPE":"U","NORAD_CAT_ID":47260,"ELEMENT_SET_NO":999,"REV_AT_EPOCH":22927,"BSTAR":0.00024608169,"MEAN_MOTION_DOT":1.01e-6,"MEAN_MOTION_DDOT":0},{"OBJECT_NAME":"ONEWEB-0111","OBJECT_ID":"2020-100D","EPOCH":"2025-09-20T02:11:36.468384","MEAN_MOTION":13.12442117,"ECCENTRICITY":0.00016707,"INCLINATION":87.8914,"RA_OF_ASC_NODE":44.3145,"ARG_OF_PERICENTER":97.7249,"MEAN_ANOMALY":262.4069,"EPHEMERIS_TYPE":0,"CLASSIFICATION_TYPE":"U","NORAD_CAT_ID":47261,"ELEMENT_SET_NO":999,"REV_AT_EPOCH":22913,"BSTAR":0.00045157166,"MEAN_MOTION_DOT":1.75e-6,"MEAN_MOTION_DDOT":0},{"OBJECT_NAME":"ONEWEB-0114","OBJECT_ID":"2020-100E","EPOCH":"2025-09-19T21:26:37.307040","MEAN_MOTION":13.1244441,"ECCENTRICITY":0.00018983,"INCLINATION":87.8916,"RA_OF_ASC_NODE":44.3476,"ARG_OF_PERICENTER":105.7069,"MEAN_ANOMALY":254.4269,"EPHEMERIS_TYPE":0,"CLASSIFICATION_TYPE":"U","NORAD_CAT_ID":47262,"ELEMENT_SET_NO":999,"REV_AT_EPOCH":22906,"BSTAR":-0.0010734866,"MEAN_MOTION_DOT":-3.73e-6,"MEAN_MOTION_DDOT":0},{"OBJECT_NAME":"ONEWEB-0117","OBJECT_ID":"2020-100F","EPOCH":"2025-09-20T02:44:17.102976","MEAN_MOTION":13.12442172,"ECCENTRICITY":0.00016475,"INCLINATION":87.8917,"RA_OF_ASC_NODE":44.3018,"ARG_OF_PERICENTER":95.8646,"MEAN_ANOMALY":264.2671,"EPHEMERIS_TYPE":0,"CLASSIFICATION_TYPE":"U","NORAD_CAT_ID":47263,"ELEMENT_SET_NO":999,"REV_AT_EPOCH":22910,"BSTAR":-0.0016378149,"MEAN_MOTION_DOT":-5.76e-6,"MEAN_MOTION_DDOT":0},{"OBJECT_NAME":"ONEWEB-0118","OBJECT_ID":"2020-100G","EPOCH":"2025-09-19T22:01:41.641248","MEAN_MOTION":13.12443198,"ECCENTRICITY":0.00020205,"INCLINATION":87.8916,"RA_OF_ASC_NODE":44.3401,"ARG_OF_PERICENTER":98.8998,"MEAN_ANOMALY":261.2359,"EPHEMERIS_TYPE":0,"CLASSIFICATION_TYPE":"U","NORAD_CAT_ID":47264,"ELEMENT_SET_NO":999,"REV_AT_EPOCH":22927,"BSTAR":0.00075454698,"MEAN_MOTION_DOT":2.84e-6,"MEAN_MOTION_DDOT":0},{"OBJECT_NAME":"ONEWEB-0119","OBJECT_ID":"2020-100H","EPOCH":"2025-09-20T02:20:55.805568","MEAN_MOTION":13.12441264,"ECCENTRICITY":0.00016123,"INCLINATION":87.8912,"RA_OF_ASC_NODE":44.3417,"ARG_OF_PERICENTER":97.3768,"MEAN_ANOMALY":262.7544,"EPHEMERIS_TYPE":0,"CLASSIFICATION_TYPE":"U","NORAD_CAT_ID":47265,"ELEMENT_SET_NO":999,"REV_AT_EPOCH":22927,"BSTAR":-0.00066177967,"MEAN_MOTION_DOT":-2.25e-6,"MEAN_MOTION_DDOT":0},{"OBJECT_NAME":"ONEWEB-0120","OBJECT_ID":"2020-100J","EPOCH":"2025-09-20T02:53:49.516800","MEAN_MOTION":13.12442905,"ECCENTRICITY":0.00017412,"INCLINATION":87.8919,"RA_OF_ASC_NODE":44.3385,"ARG_OF_PERICENTER":100.8949,"MEAN_ANOMALY":259.2376,"EPHEMERIS_TYPE":0,"CLASSIFICATION_TYPE":"U","NORAD_CAT_ID":47266,"ELEMENT_SET_NO":999,"REV_AT_EPOCH":22930,"BSTAR":-0.0015912851,"MEAN_MOTION_DOT":-5.6e-6,"MEAN_MOTION_DDOT":0},{"OBJECT_NAME":"ONEWEB-0121","OBJECT_ID":"2020-100K","EPOCH":"2025-09-20T02:37:17.986080","MEAN_MOTION":13.12441272,"ECCENTRICITY":0.00015039,"INCLINATION":87.8914,"RA_OF_ASC_NODE":44.3072,"ARG_OF_PERICENTER":95.0603,"MEAN_ANOMALY":265.0697,"EPHEMERIS_TYPE":0,"CLASSIFICATION_TYPE":"U","NORAD_CAT_ID":47267,"ELEMENT_SET_NO":999,"REV_AT_EPOCH":22921,"BSTAR":-0.00095796838,"MEAN_MOTION_DOT":-3.32e-6,"MEAN_MOTION_DDOT":0},{"OBJECT_NAME":"ONEWEB-0122","OBJECT_ID":"2020-100L","EPOCH":"2025-09-20T02:30:04.353120","MEAN_MOTION":13.12443841,"ECCENTRICITY":0.00015552,"INCLINATION":87.8913,"RA_OF_ASC_NODE":44.3111,"ARG_OF_PERICENTER":101.7161,"MEAN_ANOMALY":258.4142,"EPHEMERIS_TYPE":0,"CLASSIFICATION_TYPE":"U","NORAD_CAT_ID":47268,"ELEMENT_SET_NO":999,"REV_AT_EPOCH":22912,"BSTAR":-0.00044052133,"MEAN_MOTION_DOT":-1.46e-6,"MEAN_MOTION_DDOT":0}]
