ONEWEB-0050             
1 45453U 20020AF  25262.98236871  .00059598  00000+0  62215-2 0  9999
2 45453  88.2860 271.6345 0003058 182.0518 178.0699 14.89433557300152
ONEWEB-0034             
1 45454U 20020AG  25262.95862564 -.00000367  00000+0 -10725-2 0  9992
2 45454  87.8787  74.8833 0001655  90.4511 269.6807 13.11413512267172
ONEWEB-0060             
1 45455U 20020AH  25262.92981894  .00000542  00000+0  14933-2 0  9996
2 45455  87.8780  74.9148 0001157  43.1406 316.9812 13.11415251267120
ONEWEB-0086             
1 45456U 20020AJ  25262.90861950 -.00000128  00000+0 -39720-3 0  9999
2 45456  87.8788  74.8906 0000915  89.0756 271.0477 13.11418246267189
ONEWEB-0088             
1 45457U 20020AK  25262.96285404 -.00000675  00000+0 -19402-2 0  9991
2 45457  87.8793  74.8267 0001748  87.0174 273.1154 13.11415152267125
ONEWEB-0102             
1 47258U 20100A   25263.10273466 -.00000208  00000+0 -61247-3 0  9990
2 47258  87.8914  44.3427 0001675 101.9544 258.1772 13.12443156229300
ONEWEB-0109             
1 47259U 20100B   25263.11083912 -.00000604  00000+0 -17136-2 0  9994
2 47259  87.8916  44.3090 0001639 101.0487 259.0826 13.12441924229138
ONEWEB-0110             
1 47260U 20100C   25262.90808948  .00000101  00000+0  24608-3 0  9999
2 47260  87.8914  44.3336 0001406  95.3714 264.7575 13.12444311229273
ONEWEB-0111             
1 47261U 20100D   25263.09139431  .00000175  00000+0  45157-3 0  9998
2 47261  87.8914  44.3145 0001670  97.7249 262.4069 13.12442117229134
ONEWEB-0114             
1 47262U 20100E   25262.89348735 -.00000373  00000+0 -10735-2 0  9990
2 47262  87.8916  44.3476 0001898 105.7069 254.4269 13.12444410229069
ONEWEB-0117             
1 47263U 20100F   25263.11408684 -.00000576  00000+0 -16378-2 0  9991
2 47263  87.8917  44.3018 0001647  95.8646 264.2671 13.12442172229109
ONEWEB-0118             
1 47264U 20100G   25262.91784307  .00000284  00000+0  75455-3 0  9994
2 47264  87.8916  44.3401 0002020  98.8998 261.2359 13.12443198229271
ONEWEB-0119             
1 47265U 20100H   25263.09786812 -.00000225  00000+0 -66178-3 0  9997
2 47265  87.8912  44.3417 0001612  97.3768 262.7544 13.12441264229274
ONEWEB-0120             
1 47266U 20100J   25263.12071200 -.00000560  00000+0 -15913-2 0  9992
2 47266  87.8919  44.3385 0001741 100.8949 259.2376 13.12442905229301
ONEWEB-0121             
1 47267U 20100K   25263.10923595 -.00000332  00000+0 -95797-3 0  9990
2 47267  87.8914  44.3072 0001503  95.0603 265.0697 13.12441272229215
ONEWEB-0122             
1 47268U 20100L   25263.10421705 -.00000146  00000+0 -44052-3 0  9998
2 47268  87.8913  44.3111 0001555 101.7161 258.4142 13.12443841229125
